{
    "links": {
        "self": "http://www.neowsapp.com/rest/v1/neo/3837592?api_key=iIulBulltgU6a56xZRHN4H3l9WmuAYTsLGpBGhQ2"
    },
    "id": "3837592",
    "neo_reference_id": "3837592",
    "name": "(2019 AT2)",
    "designation": "2019 AT2",
    "nasa_jpl_url": "http://ssd.jpl.nasa.gov/sbdb.cgi?sstr=3837592",
    "absolute_magnitude_h": 25.3,
    "estimated_diameter": {
        "kilometers": {
            "estimated_diameter_min": 0.0231502122,
            "estimated_diameter_max": 0.0517654482
        },
        "meters": {
            "estimated_diameter_min": 23.150212221,
            "estimated_diameter_max": 51.7654482198
        },
        "miles": {
            "estimated_diameter_min": 0.0143848705,
            "estimated_diameter_max": 0.0321655483
        },
        "feet": {
            "estimated_diameter_min": 75.9521422633,
            "estimated_diameter_max": 169.8341531374
        }
    },
    "is_potentially_hazardous_asteroid": false,
    "close_approach_data": [
        {
            "close_approach_date": "2018-12-29",
            "close_approach_date_full": "2018-Dec-29 03:49",
            "epoch_date_close_approach": 1546055340000,
            "relative_velocity": {
                "kilometers_per_second": "16.3674781368",
                "kilometers_per_hour": "58922.9212924498",
                "miles_per_hour": "36612.4118441891"
            },
            "miss_distance": {
                "astronomical": "0.0236568788",
                "lunar": "9.2025258532",
                "kilometers": "3539018.679328156",
                "miles": "2199044.2362983128"
            },
            "orbiting_body": "Earth"
        },
        {
            "close_approach_date": "2101-07-17",
            "close_approach_date_full": "2101-Jul-17 12:01",
            "epoch_date_close_approach": 4151044860000,
            "relative_velocity": {
                "kilometers_per_second": "6.2802411222",
                "kilometers_per_hour": "22608.8680398204",
                "miles_per_hour": "14048.2713661873"
            },
            "miss_distance": {
                "astronomical": "1.9616566602",
                "lunar": "763.0844408178",
                "kilometers": "293459658.037233774",
                "miles": "182347375.9441591212"
            },
            "orbiting_body": "Juptr"
        }
    ],
    "orbital_data": {
        "orbit_id": "2",
        "orbit_determination_date": "2019-01-09 07:23:04",
        "first_observation_date": "2019-01-03",
        "last_observation_date": "2019-01-09",
        "data_arc_in_days": 6,
        "observations_used": 24,
        "orbit_uncertainty": "8",
        "minimum_orbit_intersection": ".0151743",
        "jupiter_tisserand_invariant": "3.126",
        "epoch_osculation": "2458487.5",
        "eccentricity": ".6752798818413744",
        "semi_major_axis": "2.456974086648552",
        "inclination": "5.801531707498909",
        "ascending_node_longitude": "86.95523037205777",
        "orbital_period": "1406.692885471301",
        "perihelion_distance": ".797828915729199",
        "perihelion_argument": "311.1426283740728",
        "aphelion_distance": "4.116119257567905",
        "perihelion_time": "2458444.092895531290",
        "mean_anomaly": "11.10872015500388",
        "mean_motion": ".2559194005444799",
        "equinox": "J2000",
        "orbit_class": {
            "orbit_class_type": "APO",
            "orbit_class_description": "Near-Earth asteroid orbits which cross the Earth’s orbit similar to that of 1862 Apollo",
            "orbit_class_range": "a (semi-major axis) > 1.0 AU; q (perihelion) < 1.017 AU"
        }
    },
    "is_sentry_object": false
}